; Curved spatial truss bridge demo for robotic-arm printing
; Generated parametrically to keep the arch continuous instead of piecewise-zigzag.
; Features: dual curved arches, transverse ribs, diagonal braces, crown stringer, and anti-gravity cantilever.
G90
G21
M83

; front curved arch
G92 X40.000 Y50.000 Z20.000 E0
G1 F820 X48.750 Y50.000 Z30.757 E0.361
G1 X57.500 Y50.000 Z43.822 E0.409
G1 X66.250 Y50.000 Z56.985 E0.411
G1 X75.000 Y50.000 Z69.161 E0.390
G1 X83.750 Y50.000 Z79.518 E0.353
G1 X92.500 Y50.000 Z87.400 E0.306
G1 X101.250 Y50.000 Z92.325 E0.261
G1 X110.000 Y50.000 Z94.000 E0.232
G1 X118.750 Y50.000 Z92.325 E0.232
G1 X127.500 Y50.000 Z87.400 E0.261
G1 X136.250 Y50.000 Z79.518 E0.306
G1 X145.000 Y50.000 Z69.161 E0.353
G1 X153.750 Y50.000 Z56.985 E0.390
G1 X162.500 Y50.000 Z43.822 E0.411
G1 X171.250 Y50.000 Z30.757 E0.409
G1 X180.000 Y50.000 Z20.000 E0.361

; back curved arch
G0 F1450 X40.000 Y90.000 Z20.000
G1 F820 X48.750 Y90.000 Z30.757 E0.361
G1 X57.500 Y90.000 Z43.822 E0.409
G1 X66.250 Y90.000 Z56.985 E0.411
G1 X75.000 Y90.000 Z69.161 E0.390
G1 X83.750 Y90.000 Z79.518 E0.353
G1 X92.500 Y90.000 Z87.400 E0.306
G1 X101.250 Y90.000 Z92.325 E0.261
G1 X110.000 Y90.000 Z94.000 E0.232
G1 X118.750 Y90.000 Z92.325 E0.232
G1 X127.500 Y90.000 Z87.400 E0.261
G1 X136.250 Y90.000 Z79.518 E0.306
G1 X145.000 Y90.000 Z69.161 E0.353
G1 X153.750 Y90.000 Z56.985 E0.390
G1 X162.500 Y90.000 Z43.822 E0.411
G1 X171.250 Y90.000 Z30.757 E0.409
G1 X180.000 Y90.000 Z20.000 E0.361

; transverse ribs between the two arches
G0 F1400 X40.000 Y50.000 Z20.000
G1 F760 X40.000 Y90.000 Z20.000 E0.960
G0 X66.250 Y50.000 Z56.985
G1 F760 X66.250 Y90.000 Z56.985 E0.960
G0 X83.750 Y50.000 Z79.518
G1 F760 X83.750 Y90.000 Z79.518 E0.960
G0 X110.000 Y50.000 Z94.000
G1 F760 X110.000 Y90.000 Z94.000 E0.960
G0 X136.250 Y50.000 Z79.518
G1 F760 X136.250 Y90.000 Z79.518 E0.960
G0 X153.750 Y50.000 Z56.985
G1 F760 X153.750 Y90.000 Z56.985 E0.960
G0 X180.000 Y50.000 Z20.000
G1 F760 X180.000 Y90.000 Z20.000 E0.960

; alternating diagonal braces
G0 X40.000 Y50.000 Z20.000
G1 F740 X66.250 Y90.000 Z56.985 E1.391
G0 X40.000 Y90.000 Z20.000
G1 X66.250 Y50.000 Z56.985 E1.391
G0 X66.250 Y50.000 Z56.985
G1 F740 X83.750 Y90.000 Z79.518 E1.130
G0 X66.250 Y90.000 Z56.985
G1 X83.750 Y50.000 Z79.518 E1.130
G0 X83.750 Y50.000 Z79.518
G1 F740 X110.000 Y90.000 Z94.000 E1.150
G0 X83.750 Y90.000 Z79.518
G1 X110.000 Y50.000 Z94.000 E1.150
G0 X110.000 Y50.000 Z94.000
G1 F740 X136.250 Y90.000 Z79.518 E1.150
G0 X110.000 Y90.000 Z94.000
G1 X136.250 Y50.000 Z79.518 E1.150
G0 X136.250 Y50.000 Z79.518
G1 F740 X153.750 Y90.000 Z56.985 E1.130
G0 X136.250 Y90.000 Z79.518
G1 X153.750 Y50.000 Z56.985 E1.130
G0 X153.750 Y50.000 Z56.985
G1 F740 X180.000 Y90.000 Z20.000 E1.391
G0 X153.750 Y90.000 Z56.985
G1 X180.000 Y50.000 Z20.000 E1.391

; suspended curved crown stringer
G0 F1320 X58.000 Y70.000 Z46.000
G1 F720 X68.400 Y70.000 Z61.937 E0.476
G1 X78.800 Y70.000 Z78.327 E0.485
G1 X89.200 Y70.000 Z91.939 E0.428
G1 X99.600 Y70.000 Z100.885 E0.343
G1 X110.000 Y70.000 Z104.000 E0.271
G1 X120.400 Y70.000 Z100.885 E0.271
G1 X130.800 Y70.000 Z91.939 E0.343
G1 X141.200 Y70.000 Z78.327 E0.428
G1 X151.600 Y70.000 Z61.937 E0.485
G1 X162.000 Y70.000 Z46.000 E0.476

; anti-gravity leaning cantilever showcase
G0 F1360 X110.000 Y70.000 Z94.000
G1 F700 X126.000 Y60.000 Z84.000 E0.577
G1 X144.000 Y48.000 Z71.000 E0.681
G1 X162.000 Y36.000 Z58.000 E0.681
G1 X178.000 Y26.000 Z46.000 E0.604

M104 S0
M140 S0
