; Solid spatial arch beam demo for robotic-arm printing
; Goal: show a thick non-planar solid-like member instead of a sparse frame
G90
G21
M83

; lower shell - serpentine arch ribs
G92 X40 Y44 Z20 E0
G1 F860 X40 Y44 Z20
G1 X60 Y44 Z32 E0.8
G1 X80 Y44 Z48 E0.8
G1 X100 Y44 Z68 E0.9
G1 X120 Y44 Z82 E0.9
G1 X140 Y44 Z68 E0.9
G1 X160 Y44 Z48 E0.8
G1 X180 Y44 Z32 E0.8
G1 X200 Y44 Z20 E0.8
G1 X200 Y52 Z20 E0.5
G1 X180 Y52 Z32 E0.8
G1 X160 Y52 Z48 E0.8
G1 X140 Y52 Z68 E0.9
G1 X120 Y52 Z82 E0.9
G1 X100 Y52 Z68 E0.9
G1 X80 Y52 Z48 E0.8
G1 X60 Y52 Z32 E0.8
G1 X40 Y52 Z20 E0.8
G1 X40 Y60 Z20 E0.5
G1 X60 Y60 Z32 E0.8
G1 X80 Y60 Z48 E0.8
G1 X100 Y60 Z68 E0.9
G1 X120 Y60 Z82 E0.9
G1 X140 Y60 Z68 E0.9
G1 X160 Y60 Z48 E0.8
G1 X180 Y60 Z32 E0.8
G1 X200 Y60 Z20 E0.8
G1 X200 Y68 Z20 E0.5
G1 X180 Y68 Z32 E0.8
G1 X160 Y68 Z48 E0.8
G1 X140 Y68 Z68 E0.9
G1 X120 Y68 Z82 E0.9
G1 X100 Y68 Z68 E0.9
G1 X80 Y68 Z48 E0.8
G1 X60 Y68 Z32 E0.8
G1 X40 Y68 Z20 E0.8
G1 X40 Y76 Z20 E0.5
G1 X60 Y76 Z32 E0.8
G1 X80 Y76 Z48 E0.8
G1 X100 Y76 Z68 E0.9
G1 X120 Y76 Z82 E0.9
G1 X140 Y76 Z68 E0.9
G1 X160 Y76 Z48 E0.8
G1 X180 Y76 Z32 E0.8
G1 X200 Y76 Z20 E0.8
G1 X200 Y84 Z20 E0.5
G1 X180 Y84 Z32 E0.8
G1 X160 Y84 Z48 E0.8
G1 X140 Y84 Z68 E0.9
G1 X120 Y84 Z82 E0.9
G1 X100 Y84 Z68 E0.9
G1 X80 Y84 Z48 E0.8
G1 X60 Y84 Z32 E0.8
G1 X40 Y84 Z20 E0.8
G1 X40 Y92 Z20 E0.5
G1 X60 Y92 Z32 E0.8
G1 X80 Y92 Z48 E0.8
G1 X100 Y92 Z68 E0.9
G1 X120 Y92 Z82 E0.9
G1 X140 Y92 Z68 E0.9
G1 X160 Y92 Z48 E0.8
G1 X180 Y92 Z32 E0.8
G1 X200 Y92 Z20 E0.8

; upper shell - offset upward to form thickness
G0 X200 Y92 Z30
G1 F820 X180 Y92 Z42 E0.8
G1 X160 Y92 Z58 E0.8
G1 X140 Y92 Z78 E1.0
G1 X120 Y92 Z92 E1.0
G1 X100 Y92 Z78 E1.0
G1 X80 Y92 Z58 E0.8
G1 X60 Y92 Z42 E0.8
G1 X40 Y92 Z30 E0.8
G1 X40 Y84 Z30 E0.5
G1 X60 Y84 Z42 E0.8
G1 X80 Y84 Z58 E0.8
G1 X100 Y84 Z78 E1.0
G1 X120 Y84 Z92 E1.0
G1 X140 Y84 Z78 E1.0
G1 X160 Y84 Z58 E0.8
G1 X180 Y84 Z42 E0.8
G1 X200 Y84 Z30 E0.8
G1 X200 Y76 Z30 E0.5
G1 X180 Y76 Z42 E0.8
G1 X160 Y76 Z58 E0.8
G1 X140 Y76 Z78 E1.0
G1 X120 Y76 Z92 E1.0
G1 X100 Y76 Z78 E1.0
G1 X80 Y76 Z58 E0.8
G1 X60 Y76 Z42 E0.8
G1 X40 Y76 Z30 E0.8
G1 X40 Y68 Z30 E0.5
G1 X60 Y68 Z42 E0.8
G1 X80 Y68 Z58 E0.8
G1 X100 Y68 Z78 E1.0
G1 X120 Y68 Z92 E1.0
G1 X140 Y68 Z78 E1.0
G1 X160 Y68 Z58 E0.8
G1 X180 Y68 Z42 E0.8
G1 X200 Y68 Z30 E0.8
G1 X200 Y60 Z30 E0.5
G1 X180 Y60 Z42 E0.8
G1 X160 Y60 Z58 E0.8
G1 X140 Y60 Z78 E1.0
G1 X120 Y60 Z92 E1.0
G1 X100 Y60 Z78 E1.0
G1 X80 Y60 Z58 E0.8
G1 X60 Y60 Z42 E0.8
G1 X40 Y60 Z30 E0.8
G1 X40 Y52 Z30 E0.5
G1 X60 Y52 Z42 E0.8
G1 X80 Y52 Z58 E0.8
G1 X100 Y52 Z78 E1.0
G1 X120 Y52 Z92 E1.0
G1 X140 Y52 Z78 E1.0
G1 X160 Y52 Z58 E0.8
G1 X180 Y52 Z42 E0.8
G1 X200 Y52 Z30 E0.8
G1 X200 Y44 Z30 E0.5
G1 X180 Y44 Z42 E0.8
G1 X160 Y44 Z58 E0.8
G1 X140 Y44 Z78 E1.0
G1 X120 Y44 Z92 E1.0
G1 X100 Y44 Z78 E1.0
G1 X80 Y44 Z58 E0.8
G1 X60 Y44 Z42 E0.8
G1 X40 Y44 Z30 E0.8

; transverse fill to make it read as a solid body
G0 X80 Y44 Z48
G1 F760 X80 Y92 Z48 E1.4
G0 X100 Y92 Z68
G1 X100 Y44 Z68 E1.4
G0 X120 Y44 Z82
G1 X120 Y92 Z82 E1.4
G0 X140 Y92 Z68
G1 X140 Y44 Z68 E1.4
G0 X80 Y44 Z58
G1 X80 Y92 Z58 E1.4
G0 X100 Y92 Z78
G1 X100 Y44 Z78 E1.4
G0 X120 Y44 Z92
G1 X120 Y92 Z92 E1.4
G0 X140 Y92 Z78
G1 X140 Y44 Z78 E1.4

; sloped anti-gravity nose to emphasize arm advantage
G0 X120 Y68 Z92
G1 F720 X138 Y60 Z84 E0.8
G1 X156 Y52 Z74 E0.8
G1 X174 Y44 Z62 E0.8

M104 S0
M140 S0
